start=new Date('2023-05-10T00:00:00.000Z').valueOf();
sats=[{"PERIAPSIS":"560.020","TLE_LINE2":"2 53685  97.6577  11.1774 0004299  84.3367 275.8348 15.01262532 37932","INCLINATION":"97.6577","CLASSIFICATION_TYPE":"U","ELEMENT_SET_NO":"999","OBJECT_TYPE":"PAYLOAD","ECCENTRICITY":"0.00042990","FILE":"3904553","OBJECT_ID":"2022-105AP","EPHEMERIS_TYPE":"0","RCS_SIZE":"LARGE","CENTER_NAME":"EARTH","MEAN_ELEMENT_THEORY":"SGP4","BSTAR":"0.00054029000000","TIME_SYSTEM":"UTC","MEAN_MOTION_DOT":"0.00006889","SEMIMAJOR_AXIS":"6941.139","MEAN_ANOMALY":"275.8348","NORAD_CAT_ID":"53685","RA_OF_ASC_NODE":"11.1774","COUNTRY_CODE":"US","MEAN_MOTION":"15.01262532","REF_FRAME":"TEME","APOAPSIS":"565.988","MEAN_MOTION_DDOT":"0.0000000000000","ARG_OF_PERICENTER":"84.3367","REV_AT_EPOCH":"3793","DECAY_DATE":null,"SITE":"AFWTR","LAUNCH_DATE":"2022-08-31","PERIOD":"95.919","EPOCH":"2023-05-09T13:09:47.826144","GP_ID":"231507092","TLE_LINE1":"1 53685U 22105AP  23129.54847021  .00006889  00000-0  54029-3 0  9999","OBJECT_NAME":"STARLINK-4626"},{"GP_ID":"231507843","TLE_LINE1":"1 53686U 22105AQ  23129.54476409  .00001316  00000-0  10701-3 0  9997","OBJECT_NAME":"STARLINK-4467","LAUNCH_DATE":"2022-08-31","EPOCH":"2023-05-09T13:04:27.617376","PERIOD":"95.920","MEAN_MOTION_DDOT":"0.0000000000000","APOAPSIS":"566.571","SITE":"AFWTR","REV_AT_EPOCH":"3793","DECAY_DATE":null,"ARG_OF_PERICENTER":"80.2091","COUNTRY_CODE":"US","RA_OF_ASC_NODE":"11.1735","NORAD_CAT_ID":"53686","REF_FRAME":"TEME","MEAN_MOTION":"15.01257948","SEMIMAJOR_AXIS":"6941.153","MEAN_MOTION_DOT":"0.00001316","MEAN_ANOMALY":"279.9711","RCS_SIZE":"LARGE","BSTAR":"0.00010701000000","TIME_SYSTEM":"UTC","MEAN_ELEMENT_THEORY":"SGP4","CENTER_NAME":"EARTH","ECCENTRICITY":"0.00051190","FILE":"3904553","OBJECT_ID":"2022-105AQ","EPHEMERIS_TYPE":"0","ELEMENT_SET_NO":"999","INCLINATION":"97.6571","CLASSIFICATION_TYPE":"U","TLE_LINE2":"2 53686  97.6571  11.1735 0005119  80.2091 279.9711 15.01257948 37939","PERIAPSIS":"559.465","OBJECT_TYPE":"PAYLOAD"},{"EPHEMERIS_TYPE":"0","OBJECT_ID":"2022-105AR","FILE":"3904553","ECCENTRICITY":"0.00041270","OBJECT_TYPE":"PAYLOAD","ELEMENT_SET_NO":"999","CLASSIFICATION_TYPE":"U","INCLINATION":"97.6576","TLE_LINE2":"2 53687  97.6576  11.1738 0004127  76.7837 283.3848 15.01258821 37935","PERIAPSIS":"560.151","MEAN_ANOMALY":"283.3848","SEMIMAJOR_AXIS":"6941.150","MEAN_MOTION_DOT":"0.00000944","TIME_SYSTEM":"UTC","BSTAR":"0.00007806500000","MEAN_ELEMENT_THEORY":"SGP4","CENTER_NAME":"EARTH","RCS_SIZE":"LARGE","SITE":"AFWTR","REV_AT_EPOCH":"3793","DECAY_DATE":null,"ARG_OF_PERICENTER":"76.7837","APOAPSIS":"565.880","MEAN_MOTION_DDOT":"0.0000000000000","REF_FRAME":"TEME","MEAN_MOTION":"15.01258821","COUNTRY_CODE":"US","RA_OF_ASC_NODE":"11.1738","NORAD_CAT_ID":"53687","OBJECT_NAME":"STARLINK-4569","TLE_LINE1":"1 53687U 22105AR  23129.54661421  .00000944  00000-0  78065-4 0  9992","GP_ID":"231508094","EPOCH":"2023-05-09T13:07:07.467744","PERIOD":"95.920","LAUNCH_DATE":"2022-08-31"},{"EPHEMERIS_TYPE":"0","FILE":"3904553","ECCENTRICITY":"0.00053490","OBJECT_ID":"2022-105AS","OBJECT_TYPE":"PAYLOAD","PERIAPSIS":"559.298","TLE_LINE2":"2 53688  97.6560  11.2344 0005349  79.6351 280.5476 15.01260353 37943","INCLINATION":"97.6560","CLASSIFICATION_TYPE":"U","ELEMENT_SET_NO":"999","MEAN_ANOMALY":"280.5476","MEAN_MOTION_DOT":"0.00002080","SEMIMAJOR_AXIS":"6941.146","CENTER_NAME":"EARTH","MEAN_ELEMENT_THEORY":"SGP4","TIME_SYSTEM":"UTC","BSTAR":"0.00016644000000","RCS_SIZE":"LARGE","ARG_OF_PERICENTER":"79.6351","REV_AT_EPOCH":"3794","DECAY_DATE":null,"SITE":"AFWTR","APOAPSIS":"566.724","MEAN_MOTION_DDOT":"0.0000000000000","MEAN_MOTION":"15.01260353","REF_FRAME":"TEME","NORAD_CAT_ID":"53688","COUNTRY_CODE":"US","RA_OF_ASC_NODE":"11.2344","OBJECT_NAME":"STARLINK-4571","GP_ID":"231508832","TLE_LINE1":"1 53688U 22105AS  23129.60771545  .00002080  00000-0  16644-3 0  9996","PERIOD":"95.919","EPOCH":"2023-05-09T14:35:06.614880","LAUNCH_DATE":"2022-08-31"},{"TLE_LINE1":"1 53689U 22105AT  23129.60792632 -.00025624  00000-0 -19909-2 0  9994","GP_ID":"231507592","OBJECT_NAME":"STARLINK-4562","LAUNCH_DATE":"2022-08-31","EPOCH":"2023-05-09T14:35:24.834048","PERIOD":"95.911","MEAN_MOTION_DDOT":"0.0000000000000","APOAPSIS":"564.772","SITE":"AFWTR","REV_AT_EPOCH":"3794","DECAY_DATE":null,"ARG_OF_PERICENTER":"76.7377","RA_OF_ASC_NODE":"11.2398","COUNTRY_CODE":"US","NORAD_CAT_ID":"53689","REF_FRAME":"TEME","MEAN_MOTION":"15.01384627","SEMIMAJOR_AXIS":"6940.763","MEAN_MOTION_DOT":"-0.00025624","MEAN_ANOMALY":"283.4192","RCS_SIZE":"LARGE","BSTAR":"-0.00199090000000","TIME_SYSTEM":"UTC","MEAN_ELEMENT_THEORY":"SGP4","CENTER_NAME":"EARTH","FILE":"3904553","ECCENTRICITY":"0.00030900","OBJECT_ID":"2022-105AT","EPHEMERIS_TYPE":"0","ELEMENT_SET_NO":"999","CLASSIFICATION_TYPE":"U","INCLINATION":"97.6558","TLE_LINE2":"2 53689  97.6558  11.2398 0003090  76.7377 283.4192 15.01384627 37945","PERIAPSIS":"560.483","OBJECT_TYPE":"PAYLOAD"},{"OBJECT_TYPE":"PAYLOAD","CLASSIFICATION_TYPE":"U","INCLINATION":"97.6558","ELEMENT_SET_NO":"999","PERIAPSIS":"559.290","TLE_LINE2":"2 53690  97.6558  11.2307 0005377  74.0737 286.1080 15.01256516 37949","EPHEMERIS_TYPE":"0","OBJECT_ID":"2022-105AU","FILE":"3904553","ECCENTRICITY":"0.00053770","MEAN_ELEMENT_THEORY":"SGP4","TIME_SYSTEM":"UTC","BSTAR":"0.00001344700000","CENTER_NAME":"EARTH","RCS_SIZE":"LARGE","MEAN_ANOMALY":"286.1080","SEMIMAJOR_AXIS":"6941.158","MEAN_MOTION_DOT":"0.00000113","MEAN_MOTION":"15.01256516","REF_FRAME":"TEME","RA_OF_ASC_NODE":"11.2307","COUNTRY_CODE":"US","NORAD_CAT_ID":"53690","DECAY_DATE":null,"REV_AT_EPOCH":"3794","SITE":"AFWTR","ARG_OF_PERICENTER":"74.0737","MEAN_MOTION_DDOT":"0.0000000000000","APOAPSIS":"566.755","PERIOD":"95.920","EPOCH":"2023-05-09T14:32:26.529504","LAUNCH_DATE":"2022-08-31","OBJECT_NAME":"STARLINK-4570","GP_ID":"231507344","TLE_LINE1":"1 53690U 22105AU  23129.60586261  .00000113  00000-0  13447-4 0  9992"},{"OBJECT_TYPE":"PAYLOAD","CLASSIFICATION_TYPE":"U","INCLINATION":"97.6561","ELEMENT_SET_NO":"999","PERIAPSIS":"561.494","TLE_LINE2":"2 53691  97.6561  11.2273 0002195  97.0651 263.0823 15.01258278 37947","EPHEMERIS_TYPE":"0","FILE":"3904553","OBJECT_ID":"2022-105AV","ECCENTRICITY":"0.00021950","MEAN_ELEMENT_THEORY":"SGP4","BSTAR":"0.00008128400000","TIME_SYSTEM":"UTC","CENTER_NAME":"EARTH","RCS_SIZE":"LARGE","MEAN_ANOMALY":"263.0823","SEMIMAJOR_AXIS":"6941.152","MEAN_MOTION_DOT":"0.00000985","MEAN_MOTION":"15.01258278","REF_FRAME":"TEME","RA_OF_ASC_NODE":"11.2273","COUNTRY_CODE":"US","NORAD_CAT_ID":"53691","DECAY_DATE":null,"REV_AT_EPOCH":"3794","SITE":"AFWTR","ARG_OF_PERICENTER":"97.0651","APOAPSIS":"564.541","MEAN_MOTION_DDOT":"0.0000000000000","PERIOD":"95.920","EPOCH":"2023-05-09T14:37:45.807744","LAUNCH_DATE":"2022-08-31","OBJECT_NAME":"STARLINK-4560","TLE_LINE1":"1 53691U 22105AV  23129.60955796  .00000985  00000-0  81284-4 0  9997","GP_ID":"231508595"},{"OBJECT_NAME":"STARLINK-4572","TLE_LINE1":"1 53692U 22105AW  23129.60401249  .00001213  00000-0  98977-4 0  9999","GP_ID":"231508332","EPOCH":"2023-05-09T14:29:46.679136","PERIOD":"95.920","LAUNCH_DATE":"2022-08-31","SITE":"AFWTR","REV_AT_EPOCH":"3794","DECAY_DATE":null,"ARG_OF_PERICENTER":"60.7984","APOAPSIS":"566.946","MEAN_MOTION_DDOT":"0.0000000000000","REF_FRAME":"TEME","MEAN_MOTION":"15.01256944","RA_OF_ASC_NODE":"11.2270","COUNTRY_CODE":"US","NORAD_CAT_ID":"53692","MEAN_ANOMALY":"299.3805","SEMIMAJOR_AXIS":"6941.156","MEAN_MOTION_DOT":"0.00001213","BSTAR":"0.00009897700000","TIME_SYSTEM":"UTC","MEAN_ELEMENT_THEORY":"SGP4","CENTER_NAME":"EARTH","RCS_SIZE":"LARGE","EPHEMERIS_TYPE":"0","ECCENTRICITY":"0.00056540","FILE":"3904553","OBJECT_ID":"2022-105AW","OBJECT_TYPE":"PAYLOAD","ELEMENT_SET_NO":"999","INCLINATION":"97.6542","CLASSIFICATION_TYPE":"U","TLE_LINE2":"2 53692  97.6542  11.2270 0005654  60.7984 299.3805 15.01256944 37943","PERIAPSIS":"559.097"},{"ELEMENT_SET_NO":"999","INCLINATION":"97.6550","CLASSIFICATION_TYPE":"U","TLE_LINE2":"2 53693  97.6550  11.2207 0005304  53.7805 306.3909 15.01253790 37949","PERIAPSIS":"559.349","OBJECT_TYPE":"PAYLOAD","FILE":"3904553","OBJECT_ID":"2022-105AX","ECCENTRICITY":"0.00053040","EPHEMERIS_TYPE":"0","RCS_SIZE":"LARGE","BSTAR":"0.00012017000000","TIME_SYSTEM":"UTC","MEAN_ELEMENT_THEORY":"SGP4","CENTER_NAME":"EARTH","SEMIMAJOR_AXIS":"6941.166","MEAN_MOTION_DOT":"0.00001485","MEAN_ANOMALY":"306.3909","COUNTRY_CODE":"US","RA_OF_ASC_NODE":"11.2207","NORAD_CAT_ID":"53693","REF_FRAME":"TEME","MEAN_MOTION":"15.01253790","MEAN_MOTION_DDOT":"0.0000000000000","APOAPSIS":"566.713","SITE":"AFWTR","DECAY_DATE":null,"REV_AT_EPOCH":"3794","ARG_OF_PERICENTER":"53.7805","LAUNCH_DATE":"2022-08-31","EPOCH":"2023-05-09T14:27:06.576480","PERIOD":"95.920","GP_ID":"231507093","TLE_LINE1":"1 53693U 22105AX  23129.60215945  .00001485  00000-0  12017-3 0  9997","OBJECT_NAME":"STARLINK-4566"},{"OBJECT_NAME":"STARLINK-4725","TLE_LINE1":"1 53700U 22107A   23129.51985970  .00008098  00000-0  52685-3 0  9992","GP_ID":"231508833","EPOCH":"2023-05-09T12:28:35.878080","PERIOD":"95.440","LAUNCH_DATE":"2022-09-05","ARG_OF_PERICENTER":"100.0303","SITE":"AFETR","DECAY_DATE":null,"REV_AT_EPOCH":"3858","APOAPSIS":"540.685","MEAN_MOTION_DDOT":"0.0000000000000","REF_FRAME":"TEME","MEAN_MOTION":"15.08799545","NORAD_CAT_ID":"53700","RA_OF_ASC_NODE":"210.8068","COUNTRY_CODE":"US","MEAN_ANOMALY":"260.0822","MEAN_MOTION_DOT":"0.00008098","SEMIMAJOR_AXIS":"6918.004","CENTER_NAME":"EARTH","BSTAR":"0.00052685000000","TIME_SYSTEM":"UTC","MEAN_ELEMENT_THEORY":"SGP4","RCS_SIZE":"LARGE","EPHEMERIS_TYPE":"0","OBJECT_ID":"2022-107A","FILE":"3904553","ECCENTRICITY":"0.00011800","OBJECT_TYPE":"PAYLOAD","TLE_LINE2":"2 53700  53.2160 210.8068 0001180 100.0303 260.0822 15.08799545 38583","PERIAPSIS":"539.053","ELEMENT_SET_NO":"999","CLASSIFICATION_TYPE":"U","INCLINATION":"53.2160"}];
